H1 CPF 01  gfz 2021 04 23 00  6131 terrasarx 
H2 0702601  6201 31698    2021 04 23 00 59 42 2021 04 28 00 00 42   120 1 1  0 0 0
H9
10 0 59327  86382.000000  0    -889438.411    983986.815   6749062.971
10 0 59328    102.000000  0    -854671.069   1884166.114   6560042.263
10 0 59328    222.000000  0    -789532.710   2750595.067   6255745.932
10 0 59328    342.000000  0    -695883.789   3567627.125   5841490.215
10 0 59328    462.000000  0    -576348.309   4320504.846   5324520.360
10 0 59328    582.000000  0    -434251.165   4995630.331   4713890.054
10 0 59328    702.000000  0    -273538.762   5580819.083   4020308.854
10 0 59328    822.000000  0     -98683.411   6065527.080   3255956.909
10 0 59328    942.000000  0      85424.220   6441051.416   2434276.611
10 0 59328   1062.000000  0     273594.992   6700700.711   1569732.012
10 0 59328   1182.000000  0     460470.512   6839920.289    677548.109
10 0 59328   1302.000000  0     640657.196   6856377.325   -226563.774
10 0 59328   1422.000000  0     808862.285   6750001.471  -1126691.537
10 0 59328   1542.000000  0     960026.878   6522978.956  -2007011.061
10 0 59328   1662.000000  0    1089453.243   6179702.455  -2852071.441
10 0 59328   1782.000000  0    1192924.117   5726677.548  -3647071.340
10 0 59328   1902.000000  0    1266811.034   5172388.395  -4378120.538
10 0 59328   2022.000000  0    1308168.867   4527126.403  -5032481.226
10 0 59328   2142.000000  0    1314814.445   3802787.141  -5598784.007
10 0 59328   2262.000000  0    1285387.462   3012642.091  -6067216.959
10 0 59328   2382.000000  0    1219392.962   2171088.301  -6429685.296
10 0 59328   2502.000000  0    1117224.597   1293383.513  -6679938.769
10 0 59328   2622.000000  0     980169.012    395371.467  -6813669.774
10 0 59328   2742.000000  0     810391.012   -506800.360  -6828579.700
10 0 59328   2862.000000  0     610899.568  -1396965.466  -6724413.080
10 0 59328   2982.000000  0     385495.661  -2259219.903  -6502960.000
10 0 59328   3102.000000  0     138702.883  -3078198.568  -6168030.292
10 0 59328   3222.000000  0    -124319.929  -3839346.200  -5725396.136
10 0 59328   3342.000000  0    -397880.975  -4529174.732  -5182701.506
10 0 59328   3462.000000  0    -675871.855  -5135504.851  -4549341.921
10 0 59328   3582.000000  0    -951896.962  -5647687.858  -3836313.033
10 0 59328   3702.000000  0   -1219413.010  -6056802.457  -3056028.930
10 0 59328   3822.000000  0   -1471875.629  -6355821.604  -2222112.759
10 0 59328   3942.000000  0   -1702890.164  -6539746.162  -1349162.295
10 0 59328   4062.000000  0   -1906362.685  -6605700.591   -452493.085
10 0 59328   4182.000000  0   -2076647.519  -6552986.876    452135.153
10 0 59328   4302.000000  0   -2208687.797  -6383094.756   1348802.870
10 0 59328   4422.000000  0   -2298144.957  -6099667.736   2221719.682
10 0 59328   4542.000000  0   -2341513.587  -5708425.307   3055511.666
10 0 59328   4662.000000  0   -2336218.243  -5217043.288   3835499.890
10 0 59328   4782.000000  0   -2280690.160  -4634996.179   4547963.786
10 0 59328   4902.000000  0   -2174422.583  -3973366.633   5180384.600
10 0 59328   5022.000000  0   -2018003.823  -3244625.635   5721665.781
10 0 59328   5142.000000  0   -1813125.917  -2462388.145   6162324.190
10 0 59328   5262.000000  0   -1562569.334  -1641153.001   6494650.379
10 0 59328   5382.000000  0   -1270165.392   -796030.477   6712838.067
10 0 59328   5502.000000  0    -940737.453     57538.819   6813078.921
10 0 59328   5622.000000  0    -580021.718    904065.236   6793624.126
10 0 59328   5742.000000  0    -194567.302   1728290.527   6654813.854
10 0 59328   5862.000000  0     208382.635   2515462.630   6399071.705
10 0 59328   5982.000000  0     621026.381   3251599.483   6030864.623
10 0 59328   6102.000000  0    1035153.136   3923738.736   5556629.997
10 0 59328   6222.000000  0    1442304.676   4520169.835   4984668.917
10 0 59328   6342.000000  0    1833946.621   5030644.278   4325006.887
10 0 59328   6462.000000  0    2201645.998   5446558.621   3589222.565
10 0 59328   6582.000000  0    2537252.087   5761107.540   2790249.201
10 0 59328   6702.000000  0    2833074.976   5969406.295   1942146.457
10 0 59328   6822.000000  0    3082058.887   6068572.122   1059847.637
10 0 59328   6942.000000  0    3277943.661   6057765.186    158890.268
10 0 59328   7062.000000  0    3415411.933   5938189.199   -744865.139
10 0 59328   7182.000000  0    3490218.492   5713050.190  -1635522.826
10 0 59328   7302.000000  0    3499297.756   5387475.768  -2497438.937
10 0 59328   7422.000000  0    3440847.301   4968396.251  -3315503.146
10 0 59328   7542.000000  0    3314384.178   4464390.520  -4075407.515
10 0 59328   7662.000000  0    3120773.897   3885502.417  -4763895.853
10 0 59328   7782.000000  0    2862232.101   3243033.439  -5368991.340
10 0 59328   7902.000000  0    2542299.520   2549315.107  -5880197.652
10 0 59328   8022.000000  0    2165790.992   1817467.483  -6288671.205
10 0 59328   8142.000000  0    1738719.804   1061149.018  -6587362.400
10 0 59328   8262.000000  0    1268200.819    294303.263  -6771125.495
10 0 59328   8382.000000  0     762332.167   -469093.916  -6836799.270
10 0 59328   8502.000000  0     230056.538  -1215284.387  -6783254.916
10 0 59328   8622.000000  0    -318993.167  -1930968.916  -6611411.714
10 0 59328   8742.000000  0    -874663.186  -2603537.562  -6324224.053
10 0 59328   8862.000000  0   -1426462.399  -3221288.900  -5926636.837
10 0 59328   8982.000000  0   -1963755.404  -3773631.906  -5425508.493
10 0 59328   9102.000000  0   -2475963.662  -4251269.186  -4829504.679
10 0 59328   9222.000000  0   -2952772.660  -4646359.381  -4148960.286
10 0 59328   9342.000000  0   -3384339.731  -4952653.009  -3395709.676
10 0 59328   9462.000000  0   -3761498.011  -5165599.448  -2582888.912
10 0 59328   9582.000000  0   -4075953.121  -5282422.640  -1724711.506
10 0 59328   9702.000000  0   -4320467.116  -5302162.632   -836220.646
10 0 59328   9822.000000  0   -4489024.498  -5225681.373     66977.645
10 0 59328   9942.000000  0   -4576975.739  -5055631.891    968994.967
10 0 59328  10062.000000  0   -4581154.547  -4796390.748   1853949.048
10 0 59328  10182.000000  0   -4499964.639  -4453954.522   2706252.951
10 0 59328  10302.000000  0   -4333434.476  -4035804.162   3510897.640
10 0 59328  10422.000000  0   -4083239.159  -3550740.986   4253722.733
10 0 59328  10542.000000  0   -3752688.004  -3008697.652   4921670.074
10 0 59328  10662.000000  0   -3346678.882  -2420529.643   5503012.848
10 0 59328  10782.000000  0   -2871622.098  -1797794.333   5987558.543
10 0 59328  10902.000000  0   -2335334.834  -1152521.086   6366824.244
10 0 59328  11022.000000  0   -1746907.798   -496975.303   6634180.742
10 0 59328  11142.000000  0   -1116546.027    156576.757   6784961.002
10 0 59328  11262.000000  0    -455390.750    796095.783   6816535.015
10 0 59328  11382.000000  0     224677.144   1409990.335   6728353.333
10 0 59328  11502.000000  0     911250.115   1987326.722   6521956.333
10 0 59328  11622.000000  0    1591619.844   2518023.784   6200948.314
10 0 59328  11742.000000  0    2253011.399   2993028.950   5770938.437
10 0 59328  11862.000000  0    2882823.321   3404475.068   5239449.550
10 0 59328  11982.000000  0    3468870.643   3745814.969   4615792.640
10 0 59328  12102.000000  0    3999623.023   4011928.726   3910907.524
10 0 59328  12222.000000  0    4464435.523   4199205.116   3137177.707
10 0 59328  12342.000000  0    4853769.925   4305593.163   2308211.968
10 0 59328  12462.000000  0    5159393.665   4330620.871   1438602.883
10 0 59328  12582.000000  0    5374557.920   4275382.557    543665.237
10 0 59328  12702.000000  0    5494146.645   4142493.411   -360841.968
10 0 59328  12822.000000  0    5514792.243   3936012.671  -1259002.218
10 0 59328  12942.000000  0    5434956.547   3661337.607  -2135029.855
10 0 59328  13062.000000  0    5254974.512   3325070.743  -2973554.476
10 0 59328  13182.000000  0    4977060.409   2934865.254  -3759894.627
10 0 59328  13302.000000  0    4605277.234   2499252.764  -4480316.873
10 0 59328  13422.000000  0    4145468.806   2027455.572  -5122274.057
10 0 59328  13542.000000  0    3605158.811   1529190.378  -5674616.923
10 0 59328  13662.000000  0    2993419.536   1014468.585  -6127778.783
10 0 59328  13782.000000  0    2320712.567    493396.525  -6473930.636
10 0 59328  13902.000000  0    1598706.254    -24019.933  -6707104.180
10 0 59328  14022.000000  0     840074.280   -528063.310  -6823285.258
10 0 59328  14142.000000  0      58274.630  -1009483.215  -6820476.102
10 0 59328  14262.000000  0    -732684.253  -1459661.301  -6698724.065
10 0 59328  14382.000000  0   -1518487.835  -1870761.185  -6460121.567
10 0 59328  14502.000000  0   -2284768.996  -2235862.656  -6108774.400
10 0 59328  14622.000000  0   -3017364.965  -2549076.796  -5650737.942
10 0 59328  14742.000000  0   -3702575.462  -2805641.668  -5093924.318
10 0 59328  14862.000000  0   -4327420.257  -3001997.425  -4447977.700
10 0 59328  14982.000000  0   -4879888.470  -3135837.594  -3724117.513
10 0 59328  15102.000000  0   -5349175.540  -3206135.828  -2934952.799
10 0 59328  15222.000000  0   -5725903.041  -3213147.370  -2094268.616
10 0 59328  15342.000000  0   -6002314.858  -3158384.191  -1216787.306
10 0 59328  15462.000000  0   -6172444.974  -3044564.339   -317909.373
10 0 59328  15582.000000  0   -6232251.987  -2875535.778    586561.567
10 0 59328  15702.000000  0   -6179716.979  -2656176.940   1480704.285
10 0 59328  15822.000000  0   -6014899.675  -2392275.581   2348770.489
10 0 59328  15942.000000  0   -5739951.331  -2090388.942   3175470.608
10 0 59328  16062.000000  0   -5359087.544  -1757690.139   3946250.592
10 0 59328  16182.000000  0   -4878516.900  -1401803.026   4647554.499
10 0 59328  16302.000000  0   -4306330.658  -1030630.968   5267063.170
10 0 59328  16422.000000  0   -3652358.895   -652184.832   5793908.742
99
